26690,NAVSTAR 50 (USA 156),2001,751.61,2217.0,-,54.85,Inactive,1,MEO,USA,USA,Commercial/Military,Navigation (Global or Regional Positioning),Delta,1 26690U 01004A   25067.58573785 -.00000042  00000+0  00000+0 0  9991,2 26690  54.8498  49.7594 0003041 348.9091  15.6547  1.91588050174628,1.9158805,0.0003041,MEO
25933,NAVSTAR 46 (USA 145),1999,717.99,2217.0,B,51.87,Active,1,MEO,USA,USA,Commercial/Military,Navigation (Global or Regional Positioning),Delta,1 25933U 99055A   25068.37266840 -.00000067  00000+0  00000+0 0  9999,2 25933  51.8688 315.7337 0115215 159.7674  21.8861  2.00561232186252,2.00561232,0.0115215,MEO
27663,NAVSTAR 51 (USA 166),2003,717.99,2217.0,+,55.01,Active,1,MEO,USA,USA,Commercial/Military,Navigation (Global or Regional Positioning),Delta,1 27663U 03005A   25068.99698117  .00000015  00000+0  00000+0 0  9997,2 27663  55.0072 233.4167 0143519  49.8062   0.7778  2.00559708162007,2.00559708,0.0143519,MEO
27704,NAVSTAR 52 (USA 168),2003,717.95,2217.0,B,55.03,Active,1,MEO,USA,USA,Commercial/Military,Navigation (Global or Regional Positioning),Delta,1 27704U 03010A   25064.22601493 -.00000096  00000+0  00000+0 0  9992,2 27704  55.0287 343.2448 0261080 335.1680  88.3123  2.00571946160691,2.00571946,0.026108,MEO
28129,NAVSTAR 53 (USA 175),2003,717.96,-1.0,B,54.72,Active,0,MEO,USA,USA,Unknown,Unknown,Unknown,1 28129U 03058A   25063.22798076 -.00000052  00000+0  00000+0 0  9991,2 28129  54.7189  40.7558 0070597 347.7205  12.1021  2.00568641155362,2.00568641,0.0070597,MEO
28190,NAVSTAR 54 (USA 177),2004,717.95,2217.0,+,55.22,Active,1,MEO,USA,USA,Commercial/Military,Navigation (Global or Regional Positioning),Delta,1 28190U 04009A   25068.96427676 -.00000013  00000+0  00000+0 0  9994,2 28190  55.2229 294.3946 0101471 157.1741  24.7214  2.00570276153631,2.00570276,0.0101471,MEO
28361,NAVSTAR 55 (USA 178),2004,717.99,-1.0,B,54.56,Active,0,MEO,USA,USA,Unknown,Unknown,Unknown,1 28361U 04023A   25068.96227852  .00000011  00000+0  00000+0 0  9991,2 28361  54.5610 105.4927 0155314 288.4407  68.6828  2.00559848151728,2.00559848,0.0155314,MEO
28474,NAVSTAR 56 (USA 180),2004,717.64,2217.0,+,55.36,Active,1,MEO,USA,USA,Commercial/Military,Navigation (Global or Regional Positioning),Delta,1 28474U 04045A   25064.64755485 -.00000098  00000+0  00000+0 0  9995,2 28474  55.3593 343.7348 0164237 300.8074  57.1622  2.00657176149027,2.00657176,0.0164237,MEO
28874,NAVSTAR 57 (USA 183),2005,717.96,2217.0,+,55.27,Active,1,MEO,USA,USA,Commercial/Military,Navigation (Global or Regional Positioning),Delta,1 28874U 05038A   25069.42791194 -.00000009  00000+0  00000+0 0  9992,2 28874  55.2671 291.8459 0133598 289.4949 253.5094  2.00567278142539,2.00567278,0.0133598,MEO
29486,NAVSTAR 58 (USA 190),2006,717.96,2060.0,+,54.68,Active,1,MEO,USA,USA,Commercial/Military,Navigation (Global or Regional Positioning),Delta,1 29486U 06042A   25069.32880078 -.00000046  00000+0  00000+0 0  9998,2 29486  54.6798 169.7411 0104515  45.3311 326.2833  2.00568150135094,2.0056815,0.0104515,MEO
