[
    {
        "OBJECT_NAME": "NAVSTAR 46 (USA 145)",
        "OBJECT_ID": "1999-055A",
        "EPOCH": "2025-03-09T08:56:38.549760",
        "MEAN_MOTION": 2.00561232,
        "ECCENTRICITY": 0.0115215,
        "INCLINATION": 51.8688,
        "RA_OF_ASC_NODE": 315.7337,
        "ARG_OF_PERICENTER": 159.7674,
        "MEAN_ANOMALY": 21.8861,
        "EPHEMERIS_TYPE": 0,
        "CLASSIFICATION_TYPE": "U",
        "NORAD_CAT_ID": 25933,
        "ELEMENT_SET_NO": 999,
        "REV_AT_EPOCH": 18625,
        "BSTAR": 0,
        "MEAN_MOTION_DOT": -6.7e-07,
        "MEAN_MOTION_DDOT": 0
    },
    {
        "OBJECT_NAME": "NAVSTAR 50 (USA 156)",
        "OBJECT_ID": "2001-004A",
        "EPOCH": "2025-03-08T14:03:27.750240",
        "MEAN_MOTION": 1.9158805,
        "ECCENTRICITY": 0.0003041,
        "INCLINATION": 54.8498,
        "RA_OF_ASC_NODE": 49.7594,
        "ARG_OF_PERICENTER": 348.9091,
        "MEAN_ANOMALY": 15.6547,
        "EPHEMERIS_TYPE": 0,
        "CLASSIFICATION_TYPE": "U",
        "NORAD_CAT_ID": 26690,
        "ELEMENT_SET_NO": 999,
        "REV_AT_EPOCH": 17462,
        "BSTAR": 0,
        "MEAN_MOTION_DOT": -4.2e-07,
        "MEAN_MOTION_DDOT": 0
    },
    {
        "OBJECT_NAME": "NAVSTAR 51 (USA 166)",
        "OBJECT_ID": "2003-005A",
        "EPOCH": "2025-03-09T23:55:39.173088",
        "MEAN_MOTION": 2.00559708,
        "ECCENTRICITY": 0.0143519,
        "INCLINATION": 55.0072,
        "RA_OF_ASC_NODE": 233.4167,
        "ARG_OF_PERICENTER": 49.8062,
        "MEAN_ANOMALY": 0.7778,
        "EPHEMERIS_TYPE": 0,
        "CLASSIFICATION_TYPE": "U",
        "NORAD_CAT_ID": 27663,
        "ELEMENT_SET_NO": 999,
        "REV_AT_EPOCH": 16200,
        "BSTAR": 0,
        "MEAN_MOTION_DOT": 1.5e-07,
        "MEAN_MOTION_DDOT": 0
    },
    {
        "OBJECT_NAME": "NAVSTAR 52 (USA 168)",
        "OBJECT_ID": "2003-010A",
        "EPOCH": "2025-03-05T05:25:27.689952",
        "MEAN_MOTION": 2.00571946,
        "ECCENTRICITY": 0.026108,
        "INCLINATION": 55.0287,
        "RA_OF_ASC_NODE": 343.2448,
        "ARG_OF_PERICENTER": 335.168,
        "MEAN_ANOMALY": 88.3123,
        "EPHEMERIS_TYPE": 0,
        "CLASSIFICATION_TYPE": "U",
        "NORAD_CAT_ID": 27704,
        "ELEMENT_SET_NO": 999,
        "REV_AT_EPOCH": 16069,
        "BSTAR": 0,
        "MEAN_MOTION_DOT": -9.6e-07,
        "MEAN_MOTION_DDOT": 0
    },
    {
        "OBJECT_NAME": "NAVSTAR 53 (USA 175)",
        "OBJECT_ID": "2003-058A",
        "EPOCH": "2025-03-04T05:28:17.537664",
        "MEAN_MOTION": 2.00568641,
        "ECCENTRICITY": 0.0070597,
        "INCLINATION": 54.7189,
        "RA_OF_ASC_NODE": 40.7558,
        "ARG_OF_PERICENTER": 347.7205,
        "MEAN_ANOMALY": 12.1021,
        "EPHEMERIS_TYPE": 0,
        "CLASSIFICATION_TYPE": "U",
        "NORAD_CAT_ID": 28129,
        "ELEMENT_SET_NO": 999,
        "REV_AT_EPOCH": 15536,
        "BSTAR": 0,
        "MEAN_MOTION_DOT": -5.2e-07,
        "MEAN_MOTION_DDOT": 0
    },
    {
        "OBJECT_NAME": "NAVSTAR 54 (USA 177)",
        "OBJECT_ID": "2004-009A",
        "EPOCH": "2025-03-09T23:08:33.512064",
        "MEAN_MOTION": 2.00570276,
        "ECCENTRICITY": 0.0101471,
        "INCLINATION": 55.2229,
        "RA_OF_ASC_NODE": 294.3946,
        "ARG_OF_PERICENTER": 157.1741,
        "MEAN_ANOMALY": 24.7214,
        "EPHEMERIS_TYPE": 0,
        "CLASSIFICATION_TYPE": "U",
        "NORAD_CAT_ID": 28190,
        "ELEMENT_SET_NO": 999,
        "REV_AT_EPOCH": 15363,
        "BSTAR": 0,
        "MEAN_MOTION_DOT": -1.3e-07,
        "MEAN_MOTION_DDOT": 0
    },
    {
        "OBJECT_NAME": "NAVSTAR 55 (USA 178)",
        "OBJECT_ID": "2004-023A",
        "EPOCH": "2025-03-09T23:05:40.864128",
        "MEAN_MOTION": 2.00559848,
        "ECCENTRICITY": 0.0155314,
        "INCLINATION": 54.561,
        "RA_OF_ASC_NODE": 105.4927,
        "ARG_OF_PERICENTER": 288.4407,
        "MEAN_ANOMALY": 68.6828,
        "EPHEMERIS_TYPE": 0,
        "CLASSIFICATION_TYPE": "U",
        "NORAD_CAT_ID": 28361,
        "ELEMENT_SET_NO": 999,
        "REV_AT_EPOCH": 15172,
        "BSTAR": 0,
        "MEAN_MOTION_DOT": 1.1e-07,
        "MEAN_MOTION_DDOT": 0
    },
    {
        "OBJECT_NAME": "NAVSTAR 56 (USA 180)",
        "OBJECT_ID": "2004-045A",
        "EPOCH": "2025-03-05T15:32:28.739040",
        "MEAN_MOTION": 2.00657176,
        "ECCENTRICITY": 0.0164237,
        "INCLINATION": 55.3593,
        "RA_OF_ASC_NODE": 343.7348,
        "ARG_OF_PERICENTER": 300.8074,
        "MEAN_ANOMALY": 57.1622,
        "EPHEMERIS_TYPE": 0,
        "CLASSIFICATION_TYPE": "U",
        "NORAD_CAT_ID": 28474,
        "ELEMENT_SET_NO": 999,
        "REV_AT_EPOCH": 14902,
        "BSTAR": 0,
        "MEAN_MOTION_DOT": -9.8e-07,
        "MEAN_MOTION_DDOT": 0
    },
    {
        "OBJECT_NAME": "NAVSTAR 57 (USA 183)",
        "OBJECT_ID": "2005-038A",
        "EPOCH": "2025-03-10T10:16:11.591616",
        "MEAN_MOTION": 2.00567278,
        "ECCENTRICITY": 0.0133598,
        "INCLINATION": 55.2671,
        "RA_OF_ASC_NODE": 291.8459,
        "ARG_OF_PERICENTER": 289.4949,
        "MEAN_ANOMALY": 253.5094,
        "EPHEMERIS_TYPE": 0,
        "CLASSIFICATION_TYPE": "U",
        "NORAD_CAT_ID": 28874,
        "ELEMENT_SET_NO": 999,
        "REV_AT_EPOCH": 14253,
        "BSTAR": 0,
        "MEAN_MOTION_DOT": -9e-08,
        "MEAN_MOTION_DDOT": 0
    },
    {
        "OBJECT_NAME": "NAVSTAR 58 (USA 190)",
        "OBJECT_ID": "2006-042A",
        "EPOCH": "2025-03-10T07:53:28.387392",
        "MEAN_MOTION": 2.0056815,
        "ECCENTRICITY": 0.0104515,
        "INCLINATION": 54.6798,
        "RA_OF_ASC_NODE": 169.7411,
        "ARG_OF_PERICENTER": 45.3311,
        "MEAN_ANOMALY": 326.2833,
        "EPHEMERIS_TYPE": 0,
        "CLASSIFICATION_TYPE": "U",
        "NORAD_CAT_ID": 29486,
        "ELEMENT_SET_NO": 999,
        "REV_AT_EPOCH": 13509,
        "BSTAR": 0,
        "MEAN_MOTION_DOT": -4.6e-07,
        "MEAN_MOTION_DDOT": 0
    }
]